{
  "type": "FeatureCollection",
  "features": [
    {
      "type": "Feature",
      "properties": {
        "norad_id": 33822,
        "name": "COSMOS 2251 DEB",
        "group": "cosmos-2251-debris",
        "lat": -54.29284301371933,
        "lon": 49.9093898445983,
        "alt_km": 749.0543310357662,
        "timestamp": "2025-12-05T11:32:56.409910+00:00",
        "meta_object_name": "COSMOS 2251 DEB",
        "meta_object_id": "1993-036BP",
        "meta_epoch": "2025-12-04T16:03:19.039104",
        "meta_mean_motion": 14.13010553,
        "meta_eccentricity": 0.0154051,
        "meta_inclination": 74.0697,
        "meta_ra_of_asc_node": 207.9291,
        "meta_arg_of_pericenter": 256.1139,
        "meta_mean_anomaly": 171.8387,
        "meta_ephemeris_type": 0,
        "meta_classification_type": "U",
        "meta_norad_cat_id": 33822,
        "meta_element_set_no": 999,
        "meta_rev_at_epoch": 85940,
        "meta_bstar": 0.0026346,
        "meta_mean_motion_dot": 5.478e-05,
        "meta_mean_motion_ddot": 0,
        "tle_line1": "1 33822U 93036BP  25338.66897036  .00005478  00000+0  26346-2 0  9991",
        "tle_line2": "2 33822  74.0697 207.9291 0154051 256.1139 171.8387 14.13010553859400"
      },
      "geometry": {
        "type": "Point",
        "coordinates": [
          49.9093898445983,
          -54.29284301371933
        ]
      }
    },
    {
      "type": "Feature",
      "properties": {
        "norad_id": 33823,
        "name": "COSMOS 2251 DEB",
        "group": "cosmos-2251-debris",
        "lat": 64.22210477674763,
        "lon": -160.96311009939961,
        "alt_km": 1008.520400338698,
        "timestamp": "2025-12-05T11:32:56.409920+00:00",
        "meta_object_name": "COSMOS 2251 DEB",
        "meta_object_id": "1993-036BQ",
        "meta_epoch": "2025-12-04T14:57:35.629056",
        "meta_mean_motion": 13.9891973,
        "meta_eccentricity": 0.0209249,
        "meta_inclination": 73.8087,
        "meta_ra_of_asc_node": 163.5545,
        "meta_arg_of_pericenter": 290.0197,
        "meta_mean_anomaly": 139.4414,
        "meta_ephemeris_type": 0,
        "meta_classification_type": "U",
        "meta_norad_cat_id": 33823,
        "meta_element_set_no": 999,
        "meta_rev_at_epoch": 85496,
        "meta_bstar": 0.0012092,
        "meta_mean_motion_dot": 2.078e-05,
        "meta_mean_motion_ddot": 0,
        "tle_line1": "1 33823U 93036BQ  25338.62332904  .00002078  00000+0  12092-2 0  9992",
        "tle_line2": "2 33823  73.8087 163.5545 0209249 290.0197 139.4414 13.98919730854965"
      },
      "geometry": {
        "type": "Point",
        "coordinates": [
          -160.96311009939961,
          64.22210477674763
        ]
      }
    },
    {
      "type": "Feature",
      "properties": {
        "norad_id": 33825,
        "name": "COSMOS 2251 DEB",
        "group": "cosmos-2251-debris",
        "lat": 31.743561811924582,
        "lon": 52.14020410666074,
        "alt_km": 605.1596253434809,
        "timestamp": "2025-12-05T11:32:56.409930+00:00",
        "meta_object_name": "COSMOS 2251 DEB",
        "meta_object_id": "1993-036BS",
        "meta_epoch": "2025-12-04T13:08:41.563392",
        "meta_mean_motion": 14.69651534,
        "meta_eccentricity": 0.0084145,
        "meta_inclination": 73.9862,
        "meta_ra_of_asc_node": 43.7195,
        "meta_arg_of_pericenter": 12.8194,
        "meta_mean_anomaly": 123.1608,
        "meta_ephemeris_type": 0,
        "meta_classification_type": "U",
        "meta_norad_cat_id": 33825,
        "meta_element_set_no": 999,
        "meta_rev_at_epoch": 88759,
        "meta_bstar": 0.0018597,
        "meta_mean_motion_dot": 0.00011671,
        "meta_mean_motion_ddot": 0,
        "tle_line1": "1 33825U 93036BS  25338.54770328  .00011671  00000+0  18597-2 0  9996",
        "tle_line2": "2 33825  73.9862  43.7195 0084145  12.8194 123.1608 14.69651534887596"
      },
      "geometry": {
        "type": "Point",
        "coordinates": [
          52.14020410666074,
          31.743561811924582
        ]
      }
    },
    {
      "type": "Feature",
      "properties": {
        "norad_id": 33826,
        "name": "COSMOS 2251 DEB",
        "group": "cosmos-2251-debris",
        "lat": 31.464642456271125,
        "lon": 73.59077240536308,
        "alt_km": 704.5740594920226,
        "timestamp": "2025-12-05T11:32:56.409941+00:00",
        "meta_object_name": "COSMOS 2251 DEB",
        "meta_object_id": "1993-036BT",
        "meta_epoch": "2025-12-04T16:13:58.380096",
        "meta_mean_motion": 14.51600115,
        "meta_eccentricity": 0.0084075,
        "meta_inclination": 74.0657,
        "meta_ra_of_asc_node": 65.0341,
        "meta_arg_of_pericenter": 111.9337,
        "meta_mean_anomaly": 37.7658,
        "meta_ephemeris_type": 0,
        "meta_classification_type": "U",
        "meta_norad_cat_id": 33826,
        "meta_element_set_no": 999,
        "meta_rev_at_epoch": 87652,
        "meta_bstar": 0.0037887,
        "meta_mean_motion_dot": 0.000159,
        "meta_mean_motion_ddot": 0,
        "tle_line1": "1 33826U 93036BT  25338.67637014  .00015900  00000+0  37887-2 0  9997",
        "tle_line2": "2 33826  74.0657  65.0341 0084075 111.9337  37.7658 14.51600115876529"
      },
      "geometry": {
        "type": "Point",
        "coordinates": [
          73.59077240536308,
          31.464642456271125
        ]
      }
    },
    {
      "type": "Feature",
      "properties": {
        "norad_id": 33828,
        "name": "COSMOS 2251 DEB",
        "group": "cosmos-2251-debris",
        "lat": 54.03115851081791,
        "lon": 48.374628259783776,
        "alt_km": 758.123875152909,
        "timestamp": "2025-12-05T11:32:56.409952+00:00",
        "meta_object_name": "COSMOS 2251 DEB",
        "meta_object_id": "1993-036BV",
        "meta_epoch": "2025-12-04T12:31:33.946752",
        "meta_mean_motion": 14.4428978,
        "meta_eccentricity": 0.0029349,
        "meta_inclination": 74.0475,
        "meta_ra_of_asc_node": 253.3701,
        "meta_arg_of_pericenter": 327.5658,
        "meta_mean_anomaly": 209.1627,
        "meta_ephemeris_type": 0,
        "meta_classification_type": "U",
        "meta_norad_cat_id": 33828,
        "meta_element_set_no": 999,
        "meta_rev_at_epoch": 88194,
        "meta_bstar": 0.0012051,
        "meta_mean_motion_dot": 4.141e-05,
        "meta_mean_motion_ddot": 0,
        "tle_line1": "1 33828U 93036BV  25338.52192068  .00004141  00000+0  12051-2 0  9999",
        "tle_line2": "2 33828  74.0475 253.3701 0029349 327.5658 209.1627 14.44289780881941"
      },
      "geometry": {
        "type": "Point",
        "coordinates": [
          48.374628259783776,
          54.03115851081791
        ]
      }
    },
    {
      "type": "Feature",
      "properties": {
        "norad_id": 33830,
        "name": "COSMOS 2251 DEB",
        "group": "cosmos-2251-debris",
        "lat": -45.972672851850525,
        "lon": 81.82429186490107,
        "alt_km": 667.9011461095151,
        "timestamp": "2025-12-05T11:32:56.409962+00:00",
        "meta_object_name": "COSMOS 2251 DEB",
        "meta_object_id": "1993-036BX",
        "meta_epoch": "2025-12-04T16:42:20.219904",
        "meta_mean_motion": 14.76732987,
        "meta_eccentricity": 0.0042211,
        "meta_inclination": 74.0335,
        "meta_ra_of_asc_node": 246.1333,
        "meta_arg_of_pericenter": 7.9375,
        "meta_mean_anomaly": 8.419,
        "meta_ephemeris_type": 0,
        "meta_classification_type": "U",
        "meta_norad_cat_id": 33830,
        "meta_element_set_no": 999,
        "meta_rev_at_epoch": 89353,
        "meta_bstar": 0.0024112,
        "meta_mean_motion_dot": 0.00017149,
        "meta_mean_motion_ddot": 0,
        "tle_line1": "1 33830U 93036BX  25338.69606736  .00017149  00000+0  24112-2 0  9995",
        "tle_line2": "2 33830  74.0335 246.1333 0042211   7.9375   8.4190 14.76732987893538"
      },
      "geometry": {
        "type": "Point",
        "coordinates": [
          81.82429186490107,
          -45.972672851850525
        ]
      }
    },
    {
      "type": "Feature",
      "properties": {
        "norad_id": 33832,
        "name": "COSMOS 2251 DEB",
        "group": "cosmos-2251-debris",
        "lat": -16.043158385022355,
        "lon": -140.89278466705645,
        "alt_km": 695.0246056622618,
        "timestamp": "2025-12-05T11:32:56.409972+00:00",
        "meta_object_name": "COSMOS 2251 DEB",
        "meta_object_id": "1993-036BZ",
        "meta_epoch": "2025-12-04T10:07:51.892896",
        "meta_mean_motion": 14.60482016,
        "meta_eccentricity": 0.0025559,
        "meta_inclination": 74.0552,
        "meta_ra_of_asc_node": 225.8422,
        "meta_arg_of_pericenter": 258.5676,
        "meta_mean_anomaly": 278.413,
        "meta_ephemeris_type": 0,
        "meta_classification_type": "U",
        "meta_norad_cat_id": 33832,
        "meta_element_set_no": 999,
        "meta_rev_at_epoch": 88303,
        "meta_bstar": 0.0034896,
        "meta_mean_motion_dot": 0.00017015,
        "meta_mean_motion_ddot": 0,
        "tle_line1": "1 33832U 93036BZ  25338.42212839  .00017015  00000+0  34896-2 0  9997",
        "tle_line2": "2 33832  74.0552 225.8422 0025559 258.5676 278.4130 14.60482016883033"
      },
      "geometry": {
        "type": "Point",
        "coordinates": [
          -140.89278466705645,
          -16.043158385022355
        ]
      }
    }
  ]
}